STARLINK-31908          
1 59901U 24100S   26068.52828074  .00000679  00000+0  34208-4 0  9991
2 59901  43.0036 119.2585 0001348 225.6709 134.4033 15.27569115101204
FLOCK 4G-23             
1 62647U 25009AQ  26068.71663397  .00012440  00000+0  46816-3 0  9993
2 62647  97.3979 150.9478 0000905   7.2707 352.8545 15.27262579 63728
